{
  "type": "FeatureCollection",
  "features": [
    {
      "type": "Feature",
      "properties": {
        "norad_id": 44793,
        "name": "BEIDOU-3 M22 (C44)",
        "group": "gnss",
        "lat": 43.87056069285981,
        "lon": -10.037549973149781,
        "alt_km": 21508.675129705298,
        "timestamp": "2025-12-26T19:22:39.150528+00:00",
        "meta_object_name": "BEIDOU-3 M22 (C44)",
        "meta_object_id": "2019-078A",
        "meta_epoch": "2025-12-26T04:23:18.195072",
        "meta_mean_motion": 1.86232141,
        "meta_eccentricity": 0.00061214,
        "meta_inclination": 54.096,
        "meta_ra_of_asc_node": 305.9151,
        "meta_arg_of_pericenter": 23.7349,
        "meta_mean_anomaly": 336.3032,
        "meta_ephemeris_type": 0,
        "meta_classification_type": "U",
        "meta_norad_cat_id": 44793,
        "meta_element_set_no": 999,
        "meta_rev_at_epoch": 4142,
        "meta_bstar": 0,
        "meta_mean_motion_dot": -5.6e-07,
        "meta_mean_motion_ddot": 0,
        "tle_line1": "1 44793U 19078A   25360.18284948 -.00000056  00000+0  00000+0 0  9992",
        "tle_line2": "2 44793  54.0960 305.9151 0006121  23.7349 336.3032  1.86232141 41424"
      },
      "geometry": {
        "type": "Point",
        "coordinates": [
          -10.037549973149781,
          43.87056069285981
        ]
      }
    },
    {
      "type": "Feature",
      "properties": {
        "norad_id": 44794,
        "name": "BEIDOU-3 M21 (C43)",
        "group": "gnss",
        "lat": -26.780573758987043,
        "lon": -75.60347713977131,
        "alt_km": 21523.545959644744,
        "timestamp": "2025-12-26T19:22:39.150539+00:00",
        "meta_object_name": "BEIDOU-3 M21 (C43)",
        "meta_object_id": "2019-078B",
        "meta_epoch": "2025-12-25T05:55:32.884896",
        "meta_mean_motion": 1.86227898,
        "meta_eccentricity": 0.0004304,
        "meta_inclination": 54.0703,
        "meta_ra_of_asc_node": 305.9129,
        "meta_arg_of_pericenter": 12.6939,
        "meta_mean_anomaly": 347.3266,
        "meta_ephemeris_type": 0,
        "meta_classification_type": "U",
        "meta_norad_cat_id": 44794,
        "meta_element_set_no": 999,
        "meta_rev_at_epoch": 4141,
        "meta_bstar": 0,
        "meta_mean_motion_dot": -5.3e-07,
        "meta_mean_motion_ddot": 0,
        "tle_line1": "1 44794U 19078B   25359.24690839 -.00000053  00000+0  00000+0 0  9995",
        "tle_line2": "2 44794  54.0703 305.9129 0004304  12.6939 347.3266  1.86227898 41411"
      },
      "geometry": {
        "type": "Point",
        "coordinates": [
          -75.60347713977131,
          -26.780573758987043
        ]
      }
    },
    {
      "type": "Feature",
      "properties": {
        "norad_id": 44850,
        "name": "COSMOS 2544 (759)",
        "group": "gnss",
        "lat": -2.085597198201083,
        "lon": 78.54770909846546,
        "alt_km": 19141.477120119842,
        "timestamp": "2025-12-26T19:22:39.150550+00:00",
        "meta_object_name": "COSMOS 2544 (759)",
        "meta_object_id": "2019-088A",
        "meta_epoch": "2025-12-25T20:55:29.447904",
        "meta_mean_motion": 2.13102067,
        "meta_eccentricity": 0.00144287,
        "meta_inclination": 65.4663,
        "meta_ra_of_asc_node": 79.5196,
        "meta_arg_of_pericenter": 250.7311,
        "meta_mean_anomaly": 109.1604,
        "meta_ephemeris_type": 0,
        "meta_classification_type": "U",
        "meta_norad_cat_id": 44850,
        "meta_element_set_no": 999,
        "meta_rev_at_epoch": 4702,
        "meta_bstar": 0,
        "meta_mean_motion_dot": -3e-08,
        "meta_mean_motion_ddot": 0,
        "tle_line1": "1 44850U 19088A   25359.87186861 -.00000003  00000+0  00000+0 0  9998",
        "tle_line2": "2 44850  65.4663  79.5196 0014428 250.7311 109.1604  2.13102067 47024"
      },
      "geometry": {
        "type": "Point",
        "coordinates": [
          78.54770909846546,
          -2.085597198201083
        ]
      }
    },
    {
      "type": "Feature",
      "properties": {
        "norad_id": 44864,
        "name": "BEIDOU-3 M19 (C41)",
        "group": "gnss",
        "lat": 14.968224089764398,
        "lon": -121.71343780530725,
        "alt_km": 21554.58679673764,
        "timestamp": "2025-12-26T19:22:39.150563+00:00",
        "meta_object_name": "BEIDOU-3 M19 (C41)",
        "meta_object_id": "2019-090A",
        "meta_epoch": "2025-12-26T13:40:26.964192",
        "meta_mean_motion": 1.86231444,
        "meta_eccentricity": 0.001848,
        "meta_inclination": 56.4042,
        "meta_ra_of_asc_node": 68.5033,
        "meta_arg_of_pericenter": 285.3121,
        "meta_mean_anomaly": 77.4787,
        "meta_ephemeris_type": 0,
        "meta_classification_type": "U",
        "meta_norad_cat_id": 44864,
        "meta_element_set_no": 999,
        "meta_rev_at_epoch": 4102,
        "meta_bstar": 0,
        "meta_mean_motion_dot": -3.2e-07,
        "meta_mean_motion_ddot": 0,
        "tle_line1": "1 44864U 19090A   25360.56975653 -.00000032  00000+0  00000+0 0  9991",
        "tle_line2": "2 44864  56.4042  68.5033 0018480 285.3121  77.4787  1.86231444 41027"
      },
      "geometry": {
        "type": "Point",
        "coordinates": [
          -121.71343780530725,
          14.968224089764398
        ]
      }
    },
    {
      "type": "Feature",
      "properties": {
        "norad_id": 44865,
        "name": "BEIDOU-3 M20 (C42)",
        "group": "gnss",
        "lat": -52.22866390259675,
        "lon": -52.49935328724721,
        "alt_km": 21503.390477761914,
        "timestamp": "2025-12-26T19:22:39.150574+00:00",
        "meta_object_name": "BEIDOU-3 M20 (C42)",
        "meta_object_id": "2019-090B",
        "meta_epoch": "2025-12-26T13:03:31.682016",
        "meta_mean_motion": 1.86231463,
        "meta_eccentricity": 0.00156123,
        "meta_inclination": 56.4057,
        "meta_ra_of_asc_node": 68.5385,
        "meta_arg_of_pericenter": 297.4356,
        "meta_mean_anomaly": 137.7791,
        "meta_ephemeris_type": 0,
        "meta_classification_type": "U",
        "meta_norad_cat_id": 44865,
        "meta_element_set_no": 999,
        "meta_rev_at_epoch": 4100,
        "meta_bstar": 0,
        "meta_mean_motion_dot": -3.2e-07,
        "meta_mean_motion_ddot": 0,
        "tle_line1": "1 44865U 19090B   25360.54411669 -.00000032  00000+0  00000+0 0  9992",
        "tle_line2": "2 44865  56.4057  68.5385 0015612 297.4356 137.7791  1.86231463 41006"
      },
      "geometry": {
        "type": "Point",
        "coordinates": [
          -52.49935328724721,
          -52.22866390259675
        ]
      }
    },
    {
      "type": "Feature",
      "properties": {
        "norad_id": 45344,
        "name": "BEIDOU-3 G2 (C60)",
        "group": "gnss",
        "lat": 2.2459209923732044,
        "lon": 106.22519549710711,
        "alt_km": 35794.7410889796,
        "timestamp": "2025-12-26T19:22:39.150588+00:00",
        "meta_object_name": "BEIDOU-3 G2 (C60)",
        "meta_object_id": "2020-017A",
        "meta_epoch": "2025-12-26T08:16:45.895296",
        "meta_mean_motion": 1.00272016,
        "meta_eccentricity": 0.00021343,
        "meta_inclination": 2.5207,
        "meta_ra_of_asc_node": 44.1463,
        "meta_arg_of_pericenter": 237.2251,
        "meta_mean_anomaly": 17.9577,
        "meta_ephemeris_type": 0,
        "meta_classification_type": "U",
        "meta_norad_cat_id": 45344,
        "meta_element_set_no": 999,
        "meta_rev_at_epoch": 2152,
        "meta_bstar": 0,
        "meta_mean_motion_dot": -1.2e-06,
        "meta_mean_motion_ddot": 0,
        "tle_line1": "1 45344U 20017A   25360.34497564 -.00000120  00000+0  00000+0 0  9990",
        "tle_line2": "2 45344   2.5207  44.1463 0002134 237.2251  17.9577  1.00272016 21527"
      },
      "geometry": {
        "type": "Point",
        "coordinates": [
          106.22519549710711,
          2.2459209923732044
        ]
      }
    },
    {
      "type": "Feature",
      "properties": {
        "norad_id": 45358,
        "name": "COSMOS 2545 (760)",
        "group": "gnss",
        "lat": -24.548215262695877,
        "lon": 151.06719907828986,
        "alt_km": 19112.450316614744,
        "timestamp": "2025-12-26T19:22:39.150599+00:00",
        "meta_object_name": "COSMOS 2545 (760)",
        "meta_object_id": "2020-018A",
        "meta_epoch": "2025-12-26T01:37:18.289920",
        "meta_mean_motion": 2.13102654,
        "meta_eccentricity": 0.00112779,
        "meta_inclination": 64.4616,
        "meta_ra_of_asc_node": 318.5028,
        "meta_arg_of_pericenter": 250.7597,
        "meta_mean_anomaly": 109.1229,
        "meta_ephemeris_type": 0,
        "meta_classification_type": "U",
        "meta_norad_cat_id": 45358,
        "meta_element_set_no": 999,
        "meta_rev_at_epoch": 4497,
        "meta_bstar": 0,
        "meta_mean_motion_dot": -3.5e-07,
        "meta_mean_motion_ddot": 0,
        "tle_line1": "1 45358U 20018A   25360.06757280 -.00000035  00000+0  00000+0 0  9994",
        "tle_line2": "2 45358  64.4616 318.5028 0011277 250.7597 109.1229  2.13102654 44976"
      },
      "geometry": {
        "type": "Point",
        "coordinates": [
          151.06719907828986,
          -24.548215262695877
        ]
      }
    }
  ]
}